{"type": "FeatureCollection", "features": [ {"type": "Feature", "properties": {"norad_id": 66644, "name": "STARLINK-35938", "group": "last-30-days", "lat": 39.37553617188768, "lon": 6.0462404851555505, "alt_km": 322.75351644855436, "timestamp": "2025-12-05T04:52:14.143388+00:00", "meta": {"OBJECT_NAME": "STARLINK-35938", "OBJECT_ID": "2025-271AD", "EPOCH": "2025-12-04T07:05:34.950624", "MEAN_MOTION": 15.81341829, "ECCENTRICITY": 0.0001477, "INCLINATION": 53.1561, "RA_OF_ASC_NODE": 228.5764, "ARG_OF_PERICENTER": 116.2756, "MEAN_ANOMALY": 243.8419, "EPHEMERIS_TYPE": 0, "CLASSIFICATION_TYPE": "U", "NORAD_CAT_ID": 66644, "ELEMENT_SET_NO": 999, "REV_AT_EPOCH": 288, "BSTAR": -0.0022389, "MEAN_MOTION_DOT": -0.00430598, "MEAN_MOTION_DDOT": 0}, "tle": {"line1": "1 66644U 25271AD  25338.29554341 -.00430598  00000+0 -22389-2 0  9993", "line2": "2 66644  53.1561 228.5764 0001477 116.2756 243.8419 15.81341829  2881"}}, "geometry": {"type": "Point", "coordinates": [6.0462404851555505, 39.37553617188768]}}, {"type": "Feature", "properties": {"norad_id": 66645, "name": "SHENZHOU-22", "group": "last-30-days", "lat": -41.41615538929833, "lon": -30.25441296719776, "alt_km": 391.6096125029899, "timestamp": "2025-12-05T04:52:14.143398+00:00", "meta": {"OBJECT_NAME": "SHENZHOU-22", "OBJECT_ID": "2025-272A", "EPOCH": "2025-12-04T15:25:24.990240", "MEAN_MOTION": 15.58669844, "ECCENTRICITY": 0.00099747, "INCLINATION": 41.4682, "RA_OF_ASC_NODE": 65.8455, "ARG_OF_PERICENTER": 328.5002, "MEAN_ANOMALY": 31.5238, "EPHEMERIS_TYPE": 0, "CLASSIFICATION_TYPE": "U", "NORAD_CAT_ID": 66645, "ELEMENT_SET_NO": 999, "REV_AT_EPOCH": 26279, "BSTAR": 0.00047697443, "MEAN_MOTION_DOT": 0.00037639, "MEAN_MOTION_DDOT": 0}, "tle": {"line1": "1 66645U 25272A   25338.64265035  .00037639  00000+0  47697-3 0  9990", "line2": "2 66645  41.4682  65.8455 0009974 328.5002  31.5238 15.58669844262790"}}, "geometry": {"type": "Point", "coordinates": [-30.25441296719776, -41.41615538929833]}}, {"type": "Feature", "properties": {"norad_id": 66646, "name": "CZ-2F R/B", "group": "last-30-days", "lat": 18.595997909154693, "lon": -144.37042354689055, "alt_km": 202.59131436851658, "timestamp": "2025-12-05T04:52:14.143407+00:00", "meta": {"OBJECT_NAME": "CZ-2F R/B", "OBJECT_ID": "2025-272B", "EPOCH": "2025-11-26T11:17:54.506400", "MEAN_MOTION": 16.01945612, "ECCENTRICITY": 0.01210796, "INCLINATION": 41.4431, "RA_OF_ASC_NODE": 114.9009, "ARG_OF_PERICENTER": 133.7676, "MEAN_ANOMALY": 227.3272, "EPHEMERIS_TYPE": 0, "CLASSIFICATION_TYPE": "U", "NORAD_CAT_ID": 66646, "ELEMENT_SET_NO": 999, "REV_AT_EPOCH": 21, "BSTAR": 0.00029319366, "MEAN_MOTION_DOT": 0.00449059, "MEAN_MOTION_DDOT": 7.567612e-06}, "tle": {"line1": "1 66646U 25272B   25330.47076975  .00449059  75676-5  29319-3 0  9998", "line2": "2 66646  41.4431 114.9009 0121079 133.7676 227.3272 16.01945612   217"}}, "geometry": {"type": "Point", "coordinates": [-144.37042354689055, 18.595997909154693]}}, {"type": "Feature", "properties": {"norad_id": 66647, "name": "COSMOS 2597 (RODNIK-S 22)", "group": "last-30-days", "lat": -82.252814402468, "lon": -173.29598494080662, "alt_km": 1500.7510197294323, "timestamp": "2025-12-05T04:52:14.143418+00:00", "meta": {"OBJECT_NAME": "COSMOS 2597 (RODNIK-S 22)", "OBJECT_ID": "2025-273A", "EPOCH": "2025-12-04T17:45:49.910400", "MEAN_MOTION": 12.41951087, "ECCENTRICITY": 0.0008097, "INCLINATION": 82.4982, "RA_OF_ASC_NODE": 291.4172, "ARG_OF_PERICENTER": 307.9875, "MEAN_ANOMALY": 52.0472, "EPHEMERIS_TYPE": 0, "CLASSIFICATION_TYPE": "U", "NORAD_CAT_ID": 66647, "ELEMENT_SET_NO": 999, "REV_AT_EPOCH": 114, "BSTAR": 3.9901e-06, "MEAN_MOTION_DOT": 1e-07, "MEAN_MOTION_DDOT": 0}, "tle": {"line1": "1 66647U 25273A   25338.74016100  .00000010  00000+0  39901-5 0  9995", "line2": "2 66647  82.4982 291.4172 0008097 307.9875  52.0472 12.41951087  1147"}}, "geometry": {"type": "Point", "coordinates": [-173.29598494080662, -82.252814402468]}}, {"type": "Feature", "properties": {"norad_id": 66648, "name": "COSMOS 2598 (RODNIK-S 23)", "group": "last-30-days", "lat": -78.70979033032756, "lon": -110.13303269194014, "alt_km": 1498.2488404183132, "timestamp": "2025-12-05T04:52:14.143427+00:00", "meta": {"OBJECT_NAME": "COSMOS 2598 (RODNIK-S 23)", "OBJECT_ID": "2025-273B", "EPOCH": "2025-12-04T06:06:47.884896", "MEAN_MOTION": 12.42253119, "ECCENTRICITY": 0.0008196, "INCLINATION": 82.5023, "RA_OF_ASC_NODE": 291.7242, "ARG_OF_PERICENTER": 297.6387, "MEAN_ANOMALY": 62.386, "EPHEMERIS_TYPE": 0, "CLASSIFICATION_TYPE": "U", "NORAD_CAT_ID": 66648, "ELEMENT_SET_NO": 999, "REV_AT_EPOCH": 108, "BSTAR": -2.072e-05, "MEAN_MOTION_DOT": 7e-08, "MEAN_MOTION_DDOT": 0}, "tle": {"line1": "1 66648U 25273B   25338.25472089  .00000007  00000+0 -20720-4 0  9999", "line2": "2 66648  82.5023 291.7242 0008196 297.6387  62.3860 12.42253119  1089"}}, "geometry": {"type": "Point", "coordinates": [-110.13303269194014, -78.70979033032756]}}, {"type": "Feature", "properties": {"norad_id": 66649, "name": "COSMOS 2599 (RODNIK-S 24)", "group": "last-30-days", "lat": -76.27830860983391, "lon": 143.77760518321713, "alt_km": 1503.4611197262584, "timestamp": "2025-12-05T04:52:14.143437+00:00", "meta": {"OBJECT_NAME": "COSMOS 2599 (RODNIK-S 24)", "OBJECT_ID": "2025-273C", "EPOCH": "2025-12-04T17:48:46.644192", "MEAN_MOTION": 12.41671796, "ECCENTRICITY": 0.0008322, "INCLINATION": 82.5023, "RA_OF_ASC_NODE": 291.4278, "ARG_OF_PERICENTER": 318.2866, "MEAN_ANOMALY": 41.7577, "EPHEMERIS_TYPE": 0, "CLASSIFICATION_TYPE": "U", "NORAD_CAT_ID": 66649, "ELEMENT_SET_NO": 999, "REV_AT_EPOCH": 114, "BSTAR": -3.543e-05, "MEAN_MOTION_DOT": 5e-08, "MEAN_MOTION_DDOT": 0}, "tle": {"line1": "1 66649U 25273C   25338.74220653  .00000005  00000+0 -35430-4 0  9994", "line2": "2 66649  82.5023 291.4278 0008322 318.2866  41.7577 12.41671796  1146"}}, "geometry": {"type": "Point", "coordinates": [143.77760518321713, -76.27830860983391]}}, {"type": "Feature", "properties": {"norad_id": 66650, "name": "2025-274A", "group": "last-30-days", "lat": 14.875626057715271, "lon": 88.59926336779384, "alt_km": 596.9957704758663, "timestamp": "2025-12-05T04:52:14.143447+00:00", "meta": {"OBJECT_NAME": "2025-274A", "OBJECT_ID": "2025-274A", "EPOCH": "2025-12-04T08:48:46.861920", "MEAN_MOTION": 14.91617165, "ECCENTRICITY": 0.0010409, "INCLINATION": 97.7386, "RA_OF_ASC_NODE": 265.7091, "ARG_OF_PERICENTER": 283.9382, "MEAN_ANOMALY": 76.0679, "EPHEMERIS_TYPE": 0, "CLASSIFICATION_TYPE": "U", "NORAD_CAT_ID": 66650, "ELEMENT_SET_NO": 999, "REV_AT_EPOCH": 115, "BSTAR": 0.000378, "MEAN_MOTION_DOT": 3.743e-05, "MEAN_MOTION_DDOT": 0}, "tle": {"line1": "1 66650U 25274A   25338.36720905  .00003743  00000+0  37800-3 0  9993", "line2": "2 66650  97.7386 265.7091 0010409 283.9382  76.0679 14.91617165  1157"}}, "geometry": {"type": "Point", "coordinates": [88.59926336779384, 14.875626057715271]}}, {"type": "Feature", "properties": {"norad_id": 66651, "name": "2025-274B", "group": "last-30-days", "lat": 12.965252887235243, "lon": 88.32347863324556, "alt_km": 596.7964985547078, "timestamp": "2025-12-05T04:52:14.143456+00:00", "meta": {"OBJECT_NAME": "2025-274B", "OBJECT_ID": "2025-274B", "EPOCH": "2025-12-04T16:51:17.913888", "MEAN_MOTION": 14.91703911, "ECCENTRICITY": 0.0010711, "INCLINATION": 97.7383, "RA_OF_ASC_NODE": 266.0381, "ARG_OF_PERICENTER": 282.1587, "MEAN_ANOMALY": 77.8432, "EPHEMERIS_TYPE": 0, "CLASSIFICATION_TYPE": "U", "NORAD_CAT_ID": 66651, "ELEMENT_SET_NO": 999, "REV_AT_EPOCH": 120, "BSTAR": 0.00082854, "MEAN_MOTION_DOT": 8.295e-05, "MEAN_MOTION_DDOT": 0}, "tle": {"line1": "1 66651U 25274B   25338.70229067  .00008295  00000+0  82854-3 0  9991", "line2": "2 66651  97.7383 266.0381 0010711 282.1587  77.8432 14.91703911  1202"}}, "geometry": {"type": "Point", "coordinates": [88.32347863324556, 12.965252887235243]}}, {"type": "Feature", "properties": {"norad_id": 66652, "name": "2025-274C", "group": "last-30-days", "lat": 8.481642882443762, "lon": 87.6941388413654, "alt_km": 597.2242833202026, "timestamp": "2025-12-05T04:52:14.143466+00:00", "meta": {"OBJECT_NAME": "2025-274C", "OBJECT_ID": "2025-274C", "EPOCH": "2025-12-04T16:50:09.153312", "MEAN_MOTION": 14.91839256, "ECCENTRICITY": 0.0010455, "INCLINATION": 97.7387, "RA_OF_ASC_NODE": 266.0399, "ARG_OF_PERICENTER": 288.8181, "MEAN_ANOMALY": 71.1904, "EPHEMERIS_TYPE": 0, "CLASSIFICATION_TYPE": "U", "NORAD_CAT_ID": 66652, "ELEMENT_SET_NO": 999, "REV_AT_EPOCH": 120, "BSTAR": 0.00053399, "MEAN_MOTION_DOT": 5.342e-05, "MEAN_MOTION_DDOT": 0}, "tle": {"line1": "1 66652U 25274C   25338.70149483  .00005342  00000+0  53399-3 0  9997", "line2": "2 66652  97.7387 266.0399 0010455 288.8181  71.1904 14.91839256  1207"}}, "geometry": {"type": "Point", "coordinates": [87.6941388413654, 8.481642882443762]}}, {"type": "Feature", "properties": {"norad_id": 66653, "name": "2025-274D", "group": "last-30-days", "lat": 8.24104644140406, "lon": 87.66035992940749, "alt_km": 596.9352679180647, "timestamp": "2025-12-05T04:52:14.143477+00:00", "meta": {"OBJECT_NAME": "2025-274D", "OBJECT_ID": "2025-274D", "EPOCH": "2025-12-04T07:10:34.660128", "MEAN_MOTION": 14.91841883, "ECCENTRICITY": 0.0011227, "INCLINATION": 97.7384, "RA_OF_ASC_NODE": 265.6445, "ARG_OF_PERICENTER": 286.1132, "MEAN_ANOMALY": 73.8851, "EPHEMERIS_TYPE": 0, "CLASSIFICATION_TYPE": "U", "NORAD_CAT_ID": 66653, "ELEMENT_SET_NO": 999, "REV_AT_EPOCH": 114, "BSTAR": 0.00052688, "MEAN_MOTION_DOT": 5.271e-05, "MEAN_MOTION_DDOT": 0}, "tle": {"line1": "1 66653U 25274D   25338.29901227  .00005271  00000+0  52688-3 0  9995", "line2": "2 66653  97.7384 265.6445 0011227 286.1132  73.8851 14.91841883  1149"}}, "geometry": {"type": "Point", "coordinates": [87.66035992940749, 8.24104644140406]}}]}